{
    "links": {
        "self": "http://www.neowsapp.com/rest/v1/neo/3735486?api_key=iIulBulltgU6a56xZRHN4H3l9WmuAYTsLGpBGhQ2"
    },
    "id": "3735486",
    "neo_reference_id": "3735486",
    "name": "(2015 WG2)",
    "designation": "2015 WG2",
    "nasa_jpl_url": "http://ssd.jpl.nasa.gov/sbdb.cgi?sstr=3735486",
    "absolute_magnitude_h": 23.5,
    "estimated_diameter": {
        "kilometers": {
            "estimated_diameter_min": 0.0530340723,
            "estimated_diameter_max": 0.1185877909
        },
        "meters": {
            "estimated_diameter_min": 53.0340723319,
            "estimated_diameter_max": 118.5877908577
        },
        "miles": {
            "estimated_diameter_min": 0.0329538346,
            "estimated_diameter_max": 0.0736870142
        },
        "feet": {
            "estimated_diameter_min": 173.9963058693,
            "estimated_diameter_max": 389.0675677576
        }
    },
    "is_potentially_hazardous_asteroid": false,
    "close_approach_data": [
        {
            "close_approach_date": "1951-06-21",
            "close_approach_date_full": "1951-Jun-21 22:08",
            "epoch_date_close_approach": -584761920000,
            "relative_velocity": {
                "kilometers_per_second": "14.6418419432",
                "kilometers_per_hour": "52710.6309955614",
                "miles_per_hour": "32752.3362427698"
            },
            "miss_distance": {
                "astronomical": "0.0350851893",
                "lunar": "13.6481386377",
                "kilometers": "5248669.587826791",
                "miles": "3261372.0500440758"
            },
            "orbiting_body": "Mars"
        },
        {
            "close_approach_date": "2013-05-09",
            "close_approach_date_full": "2013-May-09 19:50",
            "epoch_date_close_approach": 1368129000000,
            "relative_velocity": {
                "kilometers_per_second": "19.0455320596",
                "kilometers_per_hour": "68563.9154144524",
                "miles_per_hour": "42602.9506640524"
            },
            "miss_distance": {
                "astronomical": "0.0618687169",
                "lunar": "24.0669308741",
                "kilometers": "9255428.267873003",
                "miles": "5751056.4456253214"
            },
            "orbiting_body": "Earth"
        },
        {
            "close_approach_date": "2015-11-06",
            "close_approach_date_full": "2015-Nov-06 02:12",
            "epoch_date_close_approach": 1446775920000,
            "relative_velocity": {
                "kilometers_per_second": "19.5510010838",
                "kilometers_per_hour": "70383.6039017912",
                "miles_per_hour": "43733.6343244213"
            },
            "miss_distance": {
                "astronomical": "0.0770818049",
                "lunar": "29.9848221061",
                "kilometers": "11531273.828795563",
                "miles": "7165201.3024142494"
            },
            "orbiting_body": "Earth"
        },
        {
            "close_approach_date": "2082-04-24",
            "close_approach_date_full": "2082-Apr-24 18:11",
            "epoch_date_close_approach": 3544279860000,
            "relative_velocity": {
                "kilometers_per_second": "27.8884691576",
                "kilometers_per_hour": "100398.488967382",
                "miles_per_hour": "62383.7166586491"
            },
            "miss_distance": {
                "astronomical": "0.3203543645",
                "lunar": "124.6178477905",
                "kilometers": "47924330.574403615",
                "miles": "29778798.157715287"
            },
            "orbiting_body": "Earth"
        }
    ],
    "orbital_data": {
        "orbit_id": "5",
        "orbit_determination_date": "2017-04-06 08:30:27",
        "first_observation_date": "2015-11-20",
        "last_observation_date": "2015-12-02",
        "data_arc_in_days": 12,
        "observations_used": 27,
        "orbit_uncertainty": "8",
        "minimum_orbit_intersection": ".0592738",
        "jupiter_tisserand_invariant": "3.948",
        "epoch_osculation": "2457347.5",
        "eccentricity": ".6207362986384419",
        "semi_major_axis": "1.703208727728624",
        "inclination": "5.654973801216556",
        "ascending_node_longitude": "266.2730583555071",
        "orbital_period": "811.8956933013545",
        "perihelion_distance": ".645965246269668",
        "perihelion_argument": "49.43164369387213",
        "aphelion_distance": "2.760452209187579",
        "perihelion_time": "2457283.810700512830",
        "mean_anomaly": "28.24026288666476",
        "mean_motion": ".4434067121801782",
        "equinox": "J2000",
        "orbit_class": {
            "orbit_class_type": "APO",
            "orbit_class_description": "Near-Earth asteroid orbits which cross the Earth’s orbit similar to that of 1862 Apollo",
            "orbit_class_range": "a (semi-major axis) > 1.0 AU; q (perihelion) < 1.017 AU"
        }
    },
    "is_sentry_object": false
}